{
  "type": "FeatureCollection",
  "features": [
    {
      "type": "Feature",
      "properties": {
        "norad_id": 35902,
        "name": "COSMOS 2251 DEB",
        "group": "cosmos-2251-debris",
        "lat": 11.701713285226294,
        "lon": 59.33445764917616,
        "alt_km": 875.0956366132987,
        "timestamp": "2025-12-08T05:48:09.430491+00:00",
        "meta_object_name": "COSMOS 2251 DEB",
        "meta_object_id": "1993-036AUR",
        "meta_epoch": "2025-12-07T23:58:19.658496",
        "meta_mean_motion": 14.26862668,
        "meta_eccentricity": 0.01019224,
        "meta_inclination": 73.9832,
        "meta_ra_of_asc_node": 243.186,
        "meta_arg_of_pericenter": 358.8404,
        "meta_mean_anomaly": 1.2491,
        "meta_ephemeris_type": 0,
        "meta_classification_type": "U",
        "meta_norad_cat_id": 35902,
        "meta_element_set_no": 999,
        "meta_rev_at_epoch": 61062,
        "meta_bstar": 0.0016367935,
        "meta_mean_motion_dot": 4.172e-05,
        "meta_mean_motion_ddot": 0,
        "tle_line1": "1 35902U 93036AUR 25341.99883864  .00004172  00000+0  16368-2 0  9999",
        "tle_line2": "2 35902  73.9832 243.1860 0101922 358.8404   1.2491 14.26862668610625"
      },
      "geometry": {
        "type": "Point",
        "coordinates": [
          59.33445764917616,
          11.701713285226294
        ]
      }
    },
    {
      "type": "Feature",
      "properties": {
        "norad_id": 35905,
        "name": "COSMOS 2251 DEB",
        "group": "cosmos-2251-debris",
        "lat": 33.56453745825952,
        "lon": -129.10419340630878,
        "alt_km": 571.8415511853491,
        "timestamp": "2025-12-08T05:48:09.430501+00:00",
        "meta_object_name": "COSMOS 2251 DEB",
        "meta_object_id": "1993-036AUU",
        "meta_epoch": "2025-12-07T08:49:24.431232",
        "meta_mean_motion": 14.98911662,
        "meta_eccentricity": 0.00909894,
        "meta_inclination": 74.0317,
        "meta_ra_of_asc_node": 221.7171,
        "meta_arg_of_pericenter": 303.0017,
        "meta_mean_anomaly": 56.2448,
        "meta_ephemeris_type": 0,
        "meta_classification_type": "U",
        "meta_norad_cat_id": 35905,
        "meta_element_set_no": 999,
        "meta_rev_at_epoch": 88502,
        "meta_bstar": 0.00087159571,
        "meta_mean_motion_dot": 0.00011465,
        "meta_mean_motion_ddot": 0,
        "tle_line1": "1 35905U 93036AUU 25341.36764388  .00011465  00000+0  87160-3 0  9994",
        "tle_line2": "2 35905  74.0317 221.7171 0090989 303.0017  56.2448 14.98911662885025"
      },
      "geometry": {
        "type": "Point",
        "coordinates": [
          -129.10419340630878,
          33.56453745825952
        ]
      }
    },
    {
      "type": "Feature",
      "properties": {
        "norad_id": 35959,
        "name": "COSMOS 2251 DEB",
        "group": "cosmos-2251-debris",
        "lat": 42.55695804249259,
        "lon": 125.0570382673827,
        "alt_km": 774.8740385804385,
        "timestamp": "2025-12-08T05:48:09.430511+00:00",
        "meta_object_name": "COSMOS 2251 DEB",
        "meta_object_id": "1993-036AUZ",
        "meta_epoch": "2025-12-07T15:46:58.747296",
        "meta_mean_motion": 14.34130365,
        "meta_eccentricity": 0.00213708,
        "meta_inclination": 74.0321,
        "meta_ra_of_asc_node": 321.3677,
        "meta_arg_of_pericenter": 43.4005,
        "meta_mean_anomaly": 316.8825,
        "meta_ephemeris_type": 0,
        "meta_classification_type": "U",
        "meta_norad_cat_id": 35959,
        "meta_element_set_no": 999,
        "meta_rev_at_epoch": 84855,
        "meta_bstar": 0.00022538328,
        "meta_mean_motion_dot": 6.06e-06,
        "meta_mean_motion_ddot": 0,
        "tle_line1": "1 35959U 93036AUZ 25341.65762439  .00000606  00000+0  22538-3 0  9993",
        "tle_line2": "2 35959  74.0321 321.3677 0021370  43.4005 316.8825 14.34130365848551"
      },
      "geometry": {
        "type": "Point",
        "coordinates": [
          125.0570382673827,
          42.55695804249259
        ]
      }
    },
    {
      "type": "Feature",
      "properties": {
        "norad_id": 35961,
        "name": "COSMOS 2251 DEB",
        "group": "cosmos-2251-debris",
        "lat": 7.475187490776707,
        "lon": 29.925445408026103,
        "alt_km": 750.4221198098676,
        "timestamp": "2025-12-08T05:48:09.430521+00:00",
        "meta_object_name": "COSMOS 2251 DEB",
        "meta_object_id": "1993-036AVB",
        "meta_epoch": "2025-11-29T09:08:47.173056",
        "meta_mean_motion": 14.05319505,
        "meta_eccentricity": 0.01924432,
        "meta_inclination": 73.9254,
        "meta_ra_of_asc_node": 227.671,
        "meta_arg_of_pericenter": 163.9834,
        "meta_mean_anomaly": 196.7506,
        "meta_ephemeris_type": 0,
        "meta_classification_type": "U",
        "meta_norad_cat_id": 35961,
        "meta_element_set_no": 999,
        "meta_rev_at_epoch": 62494,
        "meta_bstar": 0.00062484461,
        "meta_mean_motion_dot": 1.171e-05,
        "meta_mean_motion_ddot": 0,
        "tle_line1": "1 35961U 93036AVB 25333.38110154  .00001171  00000+0  62484-3 0  9990",
        "tle_line2": "2 35961  73.9254 227.6710 0192443 163.9834 196.7506 14.05319505624940"
      },
      "geometry": {
        "type": "Point",
        "coordinates": [
          29.925445408026103,
          7.475187490776707
        ]
      }
    },
    {
      "type": "Feature",
      "properties": {
        "norad_id": 35979,
        "name": "COSMOS 2251 DEB",
        "group": "cosmos-2251-debris",
        "lat": 19.333969022275685,
        "lon": -107.04282077158304,
        "alt_km": 605.1295955861951,
        "timestamp": "2025-12-08T05:48:09.430531+00:00",
        "meta_object_name": "COSMOS 2251 DEB",
        "meta_object_id": "1993-036AVV",
        "meta_epoch": "2025-12-07T00:28:15.848832",
        "meta_mean_motion": 14.74528809,
        "meta_eccentricity": 0.00587537,
        "meta_inclination": 74.0106,
        "meta_ra_of_asc_node": 249.5726,
        "meta_arg_of_pericenter": 23.061,
        "meta_mean_anomaly": 352.2989,
        "meta_ephemeris_type": 0,
        "meta_classification_type": "U",
        "meta_norad_cat_id": 35979,
        "meta_element_set_no": 999,
        "meta_rev_at_epoch": 88549,
        "meta_bstar": 0.0016160682,
        "meta_mean_motion_dot": 0.00011041,
        "meta_mean_motion_ddot": 0,
        "tle_line1": "1 35979U 93036AVV 25341.01962788  .00011041  00000+0  16161-2 0  9993",
        "tle_line2": "2 35979  74.0106 249.5726 0058753  23.0610 352.2989 14.74528809885498"
      },
      "geometry": {
        "type": "Point",
        "coordinates": [
          -107.04282077158304,
          19.333969022275685
        ]
      }
    },
    {
      "type": "Feature",
      "properties": {
        "norad_id": 35980,
        "name": "COSMOS 2251 DEB",
        "group": "cosmos-2251-debris",
        "lat": 32.33506547612003,
        "lon": -59.204654424251835,
        "alt_km": 712.3655282490736,
        "timestamp": "2025-12-08T05:48:09.430541+00:00",
        "meta_object_name": "COSMOS 2251 DEB",
        "meta_object_id": "1993-036AVW",
        "meta_epoch": "2025-12-02T19:08:08.015136",
        "meta_mean_motion": 14.59062146,
        "meta_eccentricity": 0.00537712,
        "meta_inclination": 73.91,
        "meta_ra_of_asc_node": 141.7735,
        "meta_arg_of_pericenter": 277.5645,
        "meta_mean_anomaly": 81.9413,
        "meta_ephemeris_type": 0,
        "meta_classification_type": "U",
        "meta_norad_cat_id": 35980,
        "meta_element_set_no": 999,
        "meta_rev_at_epoch": 61341,
        "meta_bstar": 0.002036555,
        "meta_mean_motion_dot": 9.752e-05,
        "meta_mean_motion_ddot": 0,
        "tle_line1": "1 35980U 93036AVW 25336.79731499  .00009752  00000+0  20366-2 0  9995",
        "tle_line2": "2 35980  73.9100 141.7735 0053771 277.5645  81.9413 14.59062146613413"
      },
      "geometry": {
        "type": "Point",
        "coordinates": [
          -59.204654424251835,
          32.33506547612003
        ]
      }
    },
    {
      "type": "Feature",
      "properties": {
        "norad_id": 35982,
        "name": "COSMOS 2251 DEB",
        "group": "cosmos-2251-debris",
        "lat": 13.403299039288227,
        "lon": -0.5546711724605973,
        "alt_km": 655.4341122824826,
        "timestamp": "2025-12-08T05:48:09.430551+00:00",
        "meta_object_name": "COSMOS 2251 DEB",
        "meta_object_id": "1993-036AVY",
        "meta_epoch": "2025-12-07T18:14:57.344352",
        "meta_mean_motion": 14.62710072,
        "meta_eccentricity": 0.00640498,
        "meta_inclination": 74.0587,
        "meta_ra_of_asc_node": 356.4608,
        "meta_arg_of_pericenter": 64.299,
        "meta_mean_anomaly": 296.4771,
        "meta_ephemeris_type": 0,
        "meta_classification_type": "U",
        "meta_norad_cat_id": 35982,
        "meta_element_set_no": 999,
        "meta_rev_at_epoch": 86093,
        "meta_bstar": 0.00089150041,
        "meta_mean_motion_dot": 4.649e-05,
        "meta_mean_motion_ddot": 0,
        "tle_line1": "1 35982U 93036AVY 25341.76038593  .00004649  00000+0  89150-3 0  9992",
        "tle_line2": "2 35982  74.0587 356.4608 0064049  64.2990 296.4771 14.62710072860937"
      },
      "geometry": {
        "type": "Point",
        "coordinates": [
          -0.5546711724605973,
          13.403299039288227
        ]
      }
    }
  ]
}